ORBCOMM FM103           
1 40091U 14040F   24197.89153489  .00001285  00000+0  32182-3 0  9997
2 40091  47.0046 164.4647 0001585 201.0637 159.0183 14.56759176515040
ORBCOMM FM114           
1 41179U 15081A   24197.99073220  .00001848  00000+0  44556-3 0  9999
2 41179  47.0027  73.2295 0001808 245.2913 114.7784 14.56850488455471
ORBCOMM FM119           
1 41180U 15081B   24197.82737654  .00001233  00000+0  31027-3 0  9998
2 41180  47.0025 343.2179 0001941 285.5277  74.5393 14.56744845456659
ORBCOMM FM105           
1 41181U 15081C   24198.50326779  .00000608  00000+0  21985-3 0  9994
2 41181  47.0031 313.1004 0002630 256.0108 104.0479 14.44478267452314
ORBCOMM FM110           
1 41182U 15081D   24198.10572344  .00002083  00000+0  49783-3 0  9997
2 41182  47.0015  72.0965 0001411  58.6823 301.4200 14.56817537455497
ORBCOMM FM118           
1 41183U 15081E   24198.08344813  .00001526  00000+0  37471-3 0  9995
2 41183  47.0048  72.5254 0001666  54.1035 306.0004 14.56823079455499
ORBCOMM FM112           
1 41184U 15081F   24197.73561184  .00001922  00000+0  46295-3 0  9993
2 41184  47.0007 342.8524 0002302 267.4812  92.5809 14.56736195456581
ORBCOMM FM113           
1 41185U 15081G   24198.46734572  .00001773  00000+0  42994-3 0  9994
2 41185  47.0026 339.6825 0001893 278.5081  81.5590 14.56737588456746
